CCSDS_OMM_VERS,COMMENT,CREATION_DATE,ORIGINATOR,OBJECT_NAME,OBJECT_ID,CENTER_NAME,REF_FRAME,TIME_SYSTEM,MEAN_ELEMENT_THEORY,EPOCH,MEAN_MOTION,ECCENTRICITY,INCLINATION,RA_OF_ASC_NODE,ARG_OF_PERICENTER,MEAN_ANOMALY,EPHEMERIS_TYPE,CLASSIFICATION_TYPE,NORAD_CAT_ID,ELEMENT_SET_NO,REV_AT_EPOCH,BSTAR,MEAN_MOTION_DOT,MEAN_MOTION_DDOT,SEMIMAJOR_AXIS,PERIOD,APOAPSIS,PERIAPSIS,OBJECT_TYPE,RCS_SIZE,COUNTRY_CODE,LAUNCH_DATE,SITE,DECAY_DATE,FILE,GP_ID,TLE_LINE0,TLE_LINE1,TLE_LINE2
"2.0","GENERATED VIA SPACE-TRACK.ORG API","2020-01-07T04:33:27","18 SPCS","CZ-4 DEB","1999-057SK","EARTH","TEME","UTC","SGP4","2020-01-06T06:55:21.209088","14.46667974","0.01156900","98.7072","16.2825","318.1038","51.6268","0","U","35331","999","31581","0.00014374000000","0.00000511","0.0000000000000","7114.689","99.539","818.863","654.244","DEBRIS","SMALL","PRC","1999-10-14","TSC","","2679641","146269448","0 CZ-4 DEB","1 35331U 99057SK  20006.28843992 +.00000511 +00000-0 +14374-3 0  9997","2 35331 098.7072 016.2825 0115690 318.1038 051.6268 14.46667974315810"
"2.0","GENERATED VIA SPACE-TRACK.ORG API","2020-01-05T22:40:16","18 SPCS","ORBCOMM FM 30","1999-065A","EARTH","TEME","UTC","SGP4","2020-01-05T17:20:17.613312","14.32836064","0.00074910","45.0334","96.9380","186.5232","173.5518","0","U","25980","999","4940","0.00004342900000","-0.00000021","0.0000000000000","7160.403","100.499","787.632","776.904","PAYLOAD","MEDIUM","ORB","1999-12-04","AFETR","","2679007","146189931","0 ORBCOMM FM 30","1 25980U 99065A   20005.72242608 -.00000021  00000-0  43429-4 0  9991","2 25980  45.0334  96.9380 0007491 186.5232 173.5518 14.32836064 49402"
"2.0","GENERATED VIA SPACE-TRACK.ORG API","2020-01-05T14:20:17","18 SPCS","CZ-4 DEB","1999-057SK","EARTH","TEME","UTC","SGP4","2020-01-05T06:15:45.080352","14.46666662","0.01157360","98.7073","15.2265","321.2120","100.3800","0","U","35331","999","89343","0.00013420000000","0.00000473","0.0000000000000","7114.693","99.539","818.901","654.215","DEBRIS","SMALL","PRC","1999-10-14","TSC","","2678734","146163691","0 CZ-4 DEB","1 35331U 99057SK  20005.26093843  .00000473  00000-0  13420-3 0  9994","2 35331  98.7073  15.2265 0115736 321.2120 100.3800 14.46666662893432"
"2.0","GENERATED VIA SPACE-TRACK.ORG API","2020-01-05T06:35:13","18 SPCS","CZ-4 DEB","1999-057SK","EARTH","TEME","UTC","SGP4","2020-01-04T20:34:17.180256","14.46666224","0.01157520","98.7073","14.8115","322.4309","157.4117","0","U","35331","999","31560","0.00013282000000","0.00000468","0.0000000000000","7114.694","99.539","818.913","654.205","DEBRIS","SMALL","PRC","1999-10-14","TSC","","2678683","146155722","0 CZ-4 DEB","1 35331U 99057SK  20004.85714329 +.00000468 +00000-0 +13282-3 0  9997","2 35331 098.7073 014.8115 0115752 322.4309 157.4117 14.46666224315607"
"2.0","GENERATED VIA SPACE-TRACK.ORG API","2020-01-05T06:35:13","18 SPCS","ORBCOMM FM 30","1999-065A","EARTH","TEME","UTC","SGP4","2020-01-04T17:54:39.040416","14.32835911","0.00074220","45.0334","101.5247","181.5210","178.5615","0","U","25980","999","4873","0.00004564500000","-0.00000015","0.0000000000000","7160.404","100.499","787.583","776.954","PAYLOAD","MEDIUM","ORB","1999-12-04","AFETR","","2678683","146150484","0 ORBCOMM FM 30","1 25980U 99065A   20004.74628519 -.00000015 +00000-0 +45645-4 0  9996","2 25980 045.0334 101.5247 0007422 181.5210 178.5615 14.32835911048730"
"2.0","GENERATED VIA SPACE-TRACK.ORG API","2020-01-04T14:30:16","18 SPCS","ORBCOMM FM 30","1999-065A","EARTH","TEME","UTC","SGP4","2020-01-04T12:53:26.487168","14.32835856","0.00074090","45.0333","102.5076","180.4643","179.6198","0","U","25980","999","4923","0.00004473100000","-0.00000018","0.0000000000000","7160.404","100.499","787.574","776.964","PAYLOAD","MEDIUM","ORB","1999-12-04","AFETR","","2678227","146094008","0 ORBCOMM FM 30","1 25980U 99065A   20004.53711212 -.00000018  00000-0  44731-4 0  9994","2 25980  45.0333 102.5076 0007409 180.4643 179.6198 14.32835856 49235"
"2.0","GENERATED VIA SPACE-TRACK.ORG API","2020-01-04T05:49:52","18 SPCS","CZ-4 DEB","1999-057SK","EARTH","TEME","UTC","SGP4","2020-01-03T19:42:05.177664","14.46665206","0.01157950","98.7074","13.7466","325.5636","160.6115","0","U","35331","999","31545","0.00013323000000","0.00000470","0.0000000000000","7114.698","99.539","818.947","654.178","DEBRIS","SMALL","PRC","1999-10-14","TSC","","2678007","146062353","0 CZ-4 DEB","1 35331U 99057SK  20003.82089326 +.00000470 +00000-0 +13323-3 0  9994","2 35331 098.7074 013.7466 0115795 325.5636 160.6115 14.46665206315455"
"2.0","GENERATED VIA SPACE-TRACK.ORG API","2020-01-04T05:49:52","18 SPCS","ORBCOMM FM 30","1999-065A","EARTH","TEME","UTC","SGP4","2020-01-03T18:29:00.455424","14.32835682","0.00073520","45.0332","106.1115","176.5129","183.5770","0","U","25980","999","4859","0.00004439500000","-0.00000019","0.0000000000000","7160.404","100.500","787.534","777.005","PAYLOAD","MEDIUM","ORB","1999-12-04","AFETR","","2678007","146057114","0 ORBCOMM FM 30","1 25980U 99065A   20003.77014416 -.00000019 +00000-0 +44395-4 0  9998","2 25980 045.0332 106.1115 0007352 176.5129 183.5770 14.32835682048595"
"2.0","GENERATED VIA SPACE-TRACK.ORG API","2020-01-03T14:30:18","18 SPCS","ORBCOMM FM 30","1999-065A","EARTH","TEME","UTC","SGP4","2020-01-03T10:06:59.525856","14.32835616","0.00073260","45.0332","107.7496","174.7215","185.3710","0","U","25980","999","4907","0.00004522600000","-0.00000016","0.0000000000000","7160.405","100.500","787.515","777.024","PAYLOAD","MEDIUM","ORB","1999-12-04","AFETR","","2677669","146022840","0 ORBCOMM FM 30","1 25980U 99065A   20003.42152229 -.00000016  00000-0  45226-4 0  9996","2 25980  45.0332 107.7496 0007326 174.7215 185.3710 14.32835616 49076"
"2.0","GENERATED VIA SPACE-TRACK.ORG API","2020-01-03T14:20:14","18 SPCS","CZ-4 DEB","1999-057SK","EARTH","TEME","UTC","SGP4","2020-01-03T06:05:43.178208","14.46664605","0.01157950","98.7074","13.1639","327.2767","88.0820","0","U","35331","999","89314","0.00013236000000","0.00000466","0.0000000000000","7114.700","99.539","818.949","654.180","DEBRIS","SMALL","PRC","1999-10-14","TSC","","2677639","146022156","0 CZ-4 DEB","1 35331U 99057SK  20003.25397197  .00000466  00000-0  13236-3 0  9997","2 35331  98.7074  13.1639 0115795 327.2767  88.0820 14.46664605893140"
"2.0","GENERATED VIA SPACE-TRACK.ORG API","2020-01-03T06:39:03","18 SPCS","ORBCOMM FM 30","1999-065A","EARTH","TEME","UTC","SGP4","2020-01-02T19:03:21.856608","14.32835443","0.00072790","45.0331","110.6983","171.4053","188.6920","0","U","25980","999","4845","0.00004613500000","-0.00000014","0.0000000000000","7160.405","100.500","787.482","777.058","PAYLOAD","MEDIUM","ORB","1999-12-04","AFETR","","2677562","145989050","0 ORBCOMM FM 30","1 25980U 99065A   20002.79400297 -.00000014 +00000-0 +46135-4 0  9994","2 25980 045.0331 110.6983 0007279 171.4053 188.6920 14.32835443048458"
"2.0","GENERATED VIA SPACE-TRACK.ORG API","2020-01-02T06:20:17","18 SPCS","ORBCOMM FM 30","1999-065A","EARTH","TEME","UTC","SGP4","2020-01-02T00:38:55.798944","14.32835222","0.00072250","45.0330","114.3022","167.4206","192.6822","0","U","25980","999","4887","0.00004645000000","-0.00000013","0.0000000000000","7160.406","100.500","787.444","777.098","PAYLOAD","MEDIUM","ORB","1999-12-04","AFETR","","2676978","145948650","0 ORBCOMM FM 30","1 25980U 99065A   20002.02703471 -.00000013  00000-0  46450-4 0  9999","2 25980  45.0330 114.3022 0007225 167.4206 192.6822 14.32835222 48875"
"2.0","GENERATED VIA SPACE-TRACK.ORG API","2020-01-02T06:13:51","18 SPCS","ORBCOMM FM 30","1999-065A","EARTH","TEME","UTC","SGP4","2020-01-01T19:37:43.239648","14.32835154","0.00072140","45.0329","115.2850","166.2887","193.8157","0","U","25980","999","4831","0.00004732000000","-0.00000011","0.0000000000000","7160.406","100.500","787.437","777.106","PAYLOAD","MEDIUM","ORB","1999-12-04","AFETR","","2676929","145934988","0 ORBCOMM FM 30","1 25980U 99065A   20001.81786157 -.00000011 +00000-0 +47320-4 0  9992","2 25980 045.0329 115.2850 0007214 166.2887 193.8157 14.32835154048319"
"2.0","GENERATED VIA SPACE-TRACK.ORG API","2020-01-03T06:39:03","18 SPCS","CZ-4 DEB","1999-057SK","EARTH","TEME","UTC","SGP4","2020-01-01T05:58:16.179168","14.46662609","0.01158840","98.7074","11.1031","333.3325","85.1389","0","U","35331","999","31508","0.00013555000000","0.00000479","0.0000000000000","7114.706","99.539","819.019","654.123","DEBRIS","SMALL","PRC","1999-10-14","TSC","","2677562","145995145","0 CZ-4 DEB","1 35331U 99057SK  20001.24879837 +.00000479 +00000-0 +13555-3 0  9998","2 35331 098.7074 011.1031 0115884 333.3325 085.1389 14.46662609315083"
"2.0","GENERATED VIA SPACE-TRACK.ORG API","2020-01-01T05:44:34","18 SPCS","ORBCOMM FM 30","1999-065A","EARTH","TEME","UTC","SGP4","2019-12-31T20:12:04.614048","14.32834729","0.00071390","45.0327","119.8719","161.0563","199.0550","0","U","25980","999","4817","0.00003842100000","-0.00000035","0.0000000000000","7160.408","100.500","787.384","777.161","PAYLOAD","MEDIUM","ORB","1999-12-04","AFETR","","2676379","145883356","0 ORBCOMM FM 30","1 25980U 99065A   19365.84172007 -.00000035 +00000-0 +38421-4 0  9997","2 25980 045.0327 119.8719 0007139 161.0563 199.0550 14.32834729048177"
"2.0","GENERATED VIA SPACE-TRACK.ORG API","2019-12-31T22:20:17","18 SPCS","ORBCOMM FM 30","1999-065A","EARTH","TEME","UTC","SGP4","2019-12-31T18:31:40.426752","14.32834706","0.00071340","45.0327","120.1996","160.6790","199.4328","0","U","25980","999","4869","0.00003853200000","-0.00000035","0.0000000000000","7160.408","100.500","787.381","777.164","PAYLOAD","MEDIUM","ORB","1999-12-04","AFETR","","2676260","145873724","0 ORBCOMM FM 30","1 25980U 99065A   19365.77199568 -.00000035  00000-0  38532-4 0  9993","2 25980  45.0327 120.1996 0007134 160.6790 199.4328 14.32834706 48690"
